ALSAT 1                 
1 27559U 02054A   08198.79231385 -.00000012  00000-0  66516-5 0  4205
2 27559  97.9921  78.6889 0011959  54.7275 305.5047 14.62970856300654
NIGERIASAT 1            
1 27941U 03042C   08198.80921292 -.00000001  00000-0  87829-5 0  5167
2 27941  97.9938  78.9865 0012604 111.6820 248.5725 14.62960367256500
UK-DMC                  
1 27942U 03042D   08198.84316846  .00000047  00000-0  18157-4 0  5048
2 27942  97.9919  78.8145 0012219 119.1658 241.0770 14.62971471256500
BILSAT 1                
1 27943U 03042E   08198.87008468 -.00000030  00000-0  30688-5 0  3438
2 27943  97.9911  78.7061 0012705 109.0611 251.1967 14.62877168256504
BEIJING 1               
1 28890U 05043A   08198.82646743 -.00000023  00000-0  48613-5 0  2261
2 28890  98.0900  92.2227 0014919 319.4700  40.5390 14.60032965144979
